start=new Date('2022-08-22T00:00:00.000Z').valueOf();
sats=[{"INCLINATION":"53.0563","ELEMENT_SET_NO":"999","MEAN_ELEMENT_THEORY":"SGP4","REV_AT_EPOCH":"9648","CENTER_NAME":"EARTH","LAUNCH_DATE":"2020-11-25","MEAN_MOTION_DOT":"-0.00010579","GP_ID":"210689992","SEMIMAJOR_AXIS":"6925.200","ECCENTRICITY":"0.00015350","PERIOD":"95.589","CLASSIFICATION_TYPE":"U","OBJECT_NAME":"STARLINK-1880","FILE":"3542671","OBJECT_ID":"2020-088AV","DECAY_DATE":null,"RCS_SIZE":"LARGE","TLE_LINE1":"1 47165U 20088AV  22233.57616969 -.00010579  00000-0 -69146-3 0  9995","MEAN_ANOMALY":"281.3282","APOAPSIS":"548.128","RA_OF_ASC_NODE":"0.0901","SITE":"AFETR","MEAN_MOTION_DDOT":"0.0000000000000","COUNTRY_CODE":"US","MEAN_MOTION":"15.06448537","TLE_LINE2":"2 47165  53.0563   0.0901 0001535  78.7880 281.3282 15.06448537 96485","NORAD_CAT_ID":"47165","OBJECT_TYPE":"PAYLOAD","BSTAR":"-0.00069146000000","EPOCH":"2022-08-21T13:49:41.061216","TIME_SYSTEM":"UTC","PERIAPSIS":"546.002","ARG_OF_PERICENTER":"78.7880","REF_FRAME":"TEME","EPHEMERIS_TYPE":"0"},{"MEAN_MOTION_DOT":"0.00020154","LAUNCH_DATE":"2020-11-25","ECCENTRICITY":"0.00036310","SEMIMAJOR_AXIS":"6793.418","GP_ID":"210657191","INCLINATION":"53.0478","REV_AT_EPOCH":"9798","MEAN_ELEMENT_THEORY":"SGP4","CENTER_NAME":"EARTH","ELEMENT_SET_NO":"999","RCS_SIZE":"LARGE","DECAY_DATE":null,"TLE_LINE1":"1 47166U 20088AW  22233.31311301  .00020154  00000-0  35436-3 0  9993","MEAN_ANOMALY":"275.9259","APOAPSIS":"417.749","PERIOD":"92.874","OBJECT_ID":"2020-088AW","FILE":"3542305","OBJECT_NAME":"STARLINK-1881","CLASSIFICATION_TYPE":"U","NORAD_CAT_ID":"47166","TLE_LINE2":"2 47166  53.0478 252.6429 0003631  84.2163 275.9259 15.50494747 97988","EPOCH":"2022-08-21T07:30:52.964064","BSTAR":"0.00035436000000","OBJECT_TYPE":"PAYLOAD","MEAN_MOTION_DDOT":"0.0000000000000","SITE":"AFETR","RA_OF_ASC_NODE":"252.6429","MEAN_MOTION":"15.50494747","COUNTRY_CODE":"US","REF_FRAME":"TEME","EPHEMERIS_TYPE":"0","TIME_SYSTEM":"UTC","ARG_OF_PERICENTER":"84.2163","PERIAPSIS":"412.816"},{"PERIOD":"95.593","OBJECT_NAME":"STARLINK-1884","CLASSIFICATION_TYPE":"U","OBJECT_ID":"2020-088AX","FILE":"3542671","DECAY_DATE":null,"RCS_SIZE":"LARGE","APOAPSIS":"548.253","TLE_LINE1":"1 47167U 20088AX  22233.82683104 -.00000332  00000-0 -34009-5 0  9998","MEAN_ANOMALY":"302.0148","INCLINATION":"53.0549","ELEMENT_SET_NO":"999","CENTER_NAME":"EARTH","REV_AT_EPOCH":"9652","MEAN_ELEMENT_THEORY":"SGP4","LAUNCH_DATE":"2020-11-25","MEAN_MOTION_DOT":"-0.00000332","GP_ID":"210691490","SEMIMAJOR_AXIS":"6925.383","ECCENTRICITY":"0.00014520","TIME_SYSTEM":"UTC","PERIAPSIS":"546.242","ARG_OF_PERICENTER":"58.0982","REF_FRAME":"TEME","EPHEMERIS_TYPE":"0","RA_OF_ASC_NODE":"358.9630","MEAN_MOTION_DDOT":"0.0000000000000","SITE":"AFETR","COUNTRY_CODE":"US","MEAN_MOTION":"15.06388789","TLE_LINE2":"2 47167  53.0549 358.9630 0001452  58.0982 302.0148 15.06388789 96526","NORAD_CAT_ID":"47167","BSTAR":"-0.00000340090000","OBJECT_TYPE":"PAYLOAD","EPOCH":"2022-08-21T19:50:38.201856"},{"LAUNCH_DATE":"2020-11-25","MEAN_MOTION_DOT":"-0.00000768","SEMIMAJOR_AXIS":"6925.375","GP_ID":"210691743","ECCENTRICITY":"0.00013210","INCLINATION":"53.0560","ELEMENT_SET_NO":"999","REV_AT_EPOCH":"9649","CENTER_NAME":"EARTH","MEAN_ELEMENT_THEORY":"SGP4","DECAY_DATE":null,"RCS_SIZE":"LARGE","TLE_LINE1":"1 47170U 20088BA  22233.61305132 -.00000768  00000-0 -32703-4 0  9992","APOAPSIS":"548.155","MEAN_ANOMALY":"267.8554","PERIOD":"95.593","CLASSIFICATION_TYPE":"U","OBJECT_NAME":"STARLINK-1887","FILE":"3542671","OBJECT_ID":"2020-088BA","TLE_LINE2":"2 47170  53.0560 359.9289 0001321  92.2587 267.8554 15.06391435 96497","NORAD_CAT_ID":"47170","OBJECT_TYPE":"PAYLOAD","BSTAR":"-0.00003270300000","EPOCH":"2022-08-21T14:42:47.634048","RA_OF_ASC_NODE":"359.9289","SITE":"AFETR","MEAN_MOTION_DDOT":"0.0000000000000","COUNTRY_CODE":"US","MEAN_MOTION":"15.06391435","REF_FRAME":"TEME","EPHEMERIS_TYPE":"0","TIME_SYSTEM":"UTC","PERIAPSIS":"546.325","ARG_OF_PERICENTER":"92.2587"},{"DECAY_DATE":null,"RCS_SIZE":"LARGE","APOAPSIS":"548.197","TLE_LINE1":"1 47171U 20088BB  22233.69874731  .00004750  00000-0  33762-3 0  9995","MEAN_ANOMALY":"279.3330","PERIOD":"95.593","CLASSIFICATION_TYPE":"U","OBJECT_NAME":"STARLINK-1888","FILE":"3542671","OBJECT_ID":"2020-088BB","LAUNCH_DATE":"2020-11-25","MEAN_MOTION_DOT":"0.00004750","GP_ID":"210690492","SEMIMAJOR_AXIS":"6925.373","ECCENTRICITY":"0.00013840","INCLINATION":"53.0547","ELEMENT_SET_NO":"999","REV_AT_EPOCH":"9664","CENTER_NAME":"EARTH","MEAN_ELEMENT_THEORY":"SGP4","REF_FRAME":"TEME","EPHEMERIS_TYPE":"0","TIME_SYSTEM":"UTC","PERIAPSIS":"546.280","ARG_OF_PERICENTER":"80.7816","TLE_LINE2":"2 47171  53.0547 349.5424 0001384  80.7816 279.3330 15.06391914 96644","NORAD_CAT_ID":"47171","OBJECT_TYPE":"PAYLOAD","BSTAR":"0.00033762000000","EPOCH":"2022-08-21T16:46:11.767584","RA_OF_ASC_NODE":"349.5424","MEAN_MOTION_DDOT":"0.0000000000000","SITE":"AFETR","COUNTRY_CODE":"US","MEAN_MOTION":"15.06391914"},{"TIME_SYSTEM":"UTC","PERIAPSIS":"546.257","ARG_OF_PERICENTER":"70.4348","REF_FRAME":"TEME","EPHEMERIS_TYPE":"0","RA_OF_ASC_NODE":"358.6996","MEAN_MOTION_DDOT":"0.0000000000000","SITE":"AFETR","COUNTRY_CODE":"US","MEAN_MOTION":"15.06392052","TLE_LINE2":"2 47173  53.0562 358.6996 0001416  70.4348 289.6794 15.06392052 96530","NORAD_CAT_ID":"47173","BSTAR":"0.00025037000000","OBJECT_TYPE":"PAYLOAD","EPOCH":"2022-08-21T21:20:52.610784","PERIOD":"95.593","OBJECT_NAME":"STARLINK-1890","CLASSIFICATION_TYPE":"U","OBJECT_ID":"2020-088BD","FILE":"3542671","DECAY_DATE":null,"RCS_SIZE":"LARGE","MEAN_ANOMALY":"289.6794","TLE_LINE1":"1 47173U 20088BD  22233.88949781  .00003449  00000-0  25037-3 0  9996","APOAPSIS":"548.219","INCLINATION":"53.0562","ELEMENT_SET_NO":"999","REV_AT_EPOCH":"9653","CENTER_NAME":"EARTH","MEAN_ELEMENT_THEORY":"SGP4","LAUNCH_DATE":"2020-11-25","MEAN_MOTION_DOT":"0.00003449","SEMIMAJOR_AXIS":"6925.373","GP_ID":"210690742","ECCENTRICITY":"0.00014160"},{"BSTAR":"0.00014151000000","OBJECT_TYPE":"PAYLOAD","EPOCH":"2022-08-21T18:25:42.578688","TLE_LINE2":"2 47174  53.0554 359.2273 0001511  82.6915 277.4246 15.06383408 96518","NORAD_CAT_ID":"47174","COUNTRY_CODE":"US","MEAN_MOTION":"15.06383408","RA_OF_ASC_NODE":"359.2273","SITE":"AFETR","MEAN_MOTION_DDOT":"0.0000000000000","EPHEMERIS_TYPE":"0","REF_FRAME":"TEME","PERIAPSIS":"546.218","ARG_OF_PERICENTER":"82.6915","TIME_SYSTEM":"UTC","SEMIMAJOR_AXIS":"6925.399","GP_ID":"210690991","ECCENTRICITY":"0.00015110","LAUNCH_DATE":"2020-11-25","MEAN_MOTION_DOT":"0.00001826","ELEMENT_SET_NO":"999","CENTER_NAME":"EARTH","REV_AT_EPOCH":"9651","MEAN_ELEMENT_THEORY":"SGP4","INCLINATION":"53.0554","APOAPSIS":"548.311","TLE_LINE1":"1 47174U 20088BE  22233.76785392  .00001826  00000-0  14151-3 0  9992","MEAN_ANOMALY":"277.4246","DECAY_DATE":null,"RCS_SIZE":"LARGE","OBJECT_NAME":"STARLINK-1891","CLASSIFICATION_TYPE":"U","OBJECT_ID":"2020-088BE","FILE":"3542671","PERIOD":"95.593"},{"MEAN_MOTION_DOT":"0.00004042","LAUNCH_DATE":"2020-11-25","ECCENTRICITY":"0.00011840","GP_ID":"210691244","SEMIMAJOR_AXIS":"6925.359","INCLINATION":"53.0546","CENTER_NAME":"EARTH","REV_AT_EPOCH":"9678","MEAN_ELEMENT_THEORY":"SGP4","ELEMENT_SET_NO":"999","RCS_SIZE":"LARGE","DECAY_DATE":null,"TLE_LINE1":"1 47175U 20088BF  22233.69966344  .00004042  00000-0  29014-3 0  9990","MEAN_ANOMALY":"276.5834","APOAPSIS":"548.043","PERIOD":"95.592","FILE":"3542671","OBJECT_ID":"2020-088BF","CLASSIFICATION_TYPE":"U","OBJECT_NAME":"STARLINK-1895","NORAD_CAT_ID":"47175","TLE_LINE2":"2 47175  53.0546 339.5559 0001184  83.5290 276.5834 15.06396750 96786","EPOCH":"2022-08-21T16:47:30.921216","OBJECT_TYPE":"PAYLOAD","BSTAR":"0.00029014000000","MEAN_MOTION_DDOT":"0.0000000000000","SITE":"AFETR","RA_OF_ASC_NODE":"339.5559","MEAN_MOTION":"15.06396750","COUNTRY_CODE":"US","REF_FRAME":"TEME","EPHEMERIS_TYPE":"0","TIME_SYSTEM":"UTC","ARG_OF_PERICENTER":"83.5290","PERIAPSIS":"546.404"},{"NORAD_CAT_ID":"47177","TLE_LINE2":"2 47177  53.0554 349.3306 0001482  82.0919 278.0238 15.06371309 96653","EPOCH":"2022-08-21T18:00:30.546720","OBJECT_TYPE":"PAYLOAD","BSTAR":"0.00043030000000","SITE":"AFETR","MEAN_MOTION_DDOT":"0.0000000000000","RA_OF_ASC_NODE":"349.3306","MEAN_MOTION":"15.06371309","COUNTRY_CODE":"US","REF_FRAME":"TEME","EPHEMERIS_TYPE":"0","TIME_SYSTEM":"UTC","ARG_OF_PERICENTER":"82.0919","PERIAPSIS":"546.275","MEAN_MOTION_DOT":"0.00006129","LAUNCH_DATE":"2020-11-25","ECCENTRICITY":"0.00014820","SEMIMAJOR_AXIS":"6925.436","GP_ID":"210689993","INCLINATION":"53.0554","REV_AT_EPOCH":"9665","CENTER_NAME":"EARTH","MEAN_ELEMENT_THEORY":"SGP4","ELEMENT_SET_NO":"999","RCS_SIZE":"LARGE","DECAY_DATE":null,"MEAN_ANOMALY":"278.0238","TLE_LINE1":"1 47177U 20088BH  22233.75035355  .00006129  00000-0  43030-3 0  9990","APOAPSIS":"548.328","PERIOD":"95.594","FILE":"3542671","OBJECT_ID":"2020-088BH","CLASSIFICATION_TYPE":"U","OBJECT_NAME":"STARLINK-1907"},{"INCLINATION":"53.0572","REV_AT_EPOCH":"9650","MEAN_ELEMENT_THEORY":"SGP4","CENTER_NAME":"EARTH","ELEMENT_SET_NO":"999","MEAN_MOTION_DOT":"0.00001959","LAUNCH_DATE":"2020-11-25","ECCENTRICITY":"0.00013120","SEMIMAJOR_AXIS":"6925.369","GP_ID":"210690243","PERIOD":"95.593","FILE":"3542671","OBJECT_ID":"2020-088BJ","CLASSIFICATION_TYPE":"U","OBJECT_NAME":"STARLINK-1912","RCS_SIZE":"LARGE","DECAY_DATE":null,"TLE_LINE1":"1 47178U 20088BJ  22233.73099878  .00001959  00000-0  15042-3 0  9997","MEAN_ANOMALY":"260.6676","APOAPSIS":"548.143","MEAN_MOTION_DDOT":"0.0000000000000","SITE":"AFETR","RA_OF_ASC_NODE":"359.4071","MEAN_MOTION":"15.06393254","COUNTRY_CODE":"US","NORAD_CAT_ID":"47178","TLE_LINE2":"2 47178  53.0572 359.4071 0001312  99.4461 260.6676 15.06393254 96501","EPOCH":"2022-08-21T17:32:38.294592","OBJECT_TYPE":"PAYLOAD","BSTAR":"0.00015042000000","TIME_SYSTEM":"UTC","ARG_OF_PERICENTER":"99.4461","PERIAPSIS":"546.326","REF_FRAME":"TEME","EPHEMERIS_TYPE":"0"}];
